     2.100          NAVIGATION                              RINEX VERSION / TYPE
fic2rin                                 09/13/2009 01:24:24 PGM / RUN BY / DATE
                                                            END OF HEADER
17 09  9 12  3 59 44.0  .842656008899D-04  .295585778076D-11  .000000000000D+00
     .750000000000D+02 -.163750000000D+02  .471591072233D-08  .910838403070D+00
    -.101141631603D-05  .465136743151D-02  .770576298237D-05  .515372660828D+04
     .532784000000D+06 -.540167093277D-07  .297645245406D+01  .670552253723D-07
     .960197886656D+00  .231437500000D+03 -.264080251806D+01 -.798854704076D-08
     .184293390845D-09  .100000000000D+01  .154800000000D+04  .000000000000D+00
     .240000000000D+01  .000000000000D+00 -.102445483208D-07  .750000000000D+02
     .526986000000D+06  .400000000000D+01
30 09  9 12  3 59 44.0  .176191795617D-03  .306954461848D-11  .000000000000D+00
     .300000000000D+02 -.618125000000D+02  .437661087484D-08  .195191196316D+01
    -.336579978466D-05  .119103305042D-01  .794604420662D-05  .515367756844D+04
     .532784000000D+06  .189989805222D-06  .186721568752D+01 -.249594449997D-06
     .952918886131D+00  .220906250000D+03  .145141816656D+01 -.789997192268D-08
     .305012705003D-09  .100000000000D+01  .154800000000D+04  .000000000000D+00
     .240000000000D+01  .000000000000D+00 -.791624188423D-08  .300000000000D+02
     .529446000000D+06  .400000000000D+01
27 09  9 12  3 59 44.0  .820085406303D-04  .318323145621D-11  .000000000000D+00
     .210000000000D+02 -.590625000000D+02  .420017495415D-08  .522151188413D+00
    -.313483178616D-05  .213457969949D-01  .565499067307D-05  .515374146843D+04
     .532784000000D+06 -.240281224251D-06  .806218176509D+00 -.245869159698D-06
     .975664966945D+00  .289562500000D+03 -.154767191342D+01 -.834677624816D-08
    -.260725145963D-09  .100000000000D+01  .154800000000D+04  .000000000000D+00
     .240000000000D+01  .000000000000D+00 -.419095158577D-08  .210000000000D+02
     .531936000000D+06  .400000000000D+01
24 09  9 12  3 59 44.0  .219890847802D-03  .295585778076D-11  .000000000000D+00
     .310000000000D+02  .221562500000D+02  .489234664302D-08  .214249968266D+01
     .113435089588D-05  .648173957597D-02  .869669020176D-05  .515366642952D+04
     .532784000000D+06  .502914190292D-07 -.222810930195D+01  .670552253723D-07
     .950207524003D+00  .205593750000D+03 -.627647366432D+00 -.801997692137D-08
    -.296798077117D-09  .100000000000D+01  .154800000000D+04  .000000000000D+00
     .240000000000D+01  .000000000000D+00 -.139698386192D-08  .310000000000D+02
     .532266000000D+06  .400000000000D+01
 3 09  9 12  5 59 44.0  .446042045951D-03  .511590769747D-11  .000000000000D+00
     .550000000000D+02 -.468750000000D+01  .544915555063D-08  .620625437186D+00
    -.203028321266D-06  .124082224211D-01  .749900937080D-05  .515364843941D+04
     .539984000000D+06 -.176951289177D-06  .284172482191D+01  .100582838058D-06
     .926837410613D+00  .218937500000D+03  .937752100499D+00 -.857892877539D-08
     .141434462742D-09  .100000000000D+01  .154800000000D+04  .000000000000D+00
     .240000000000D+01  .000000000000D+00 -.465661287308D-08  .550000000000D+02
     .532806000000D+06  .400000000000D+01
17 09  9 12  5 59 44.0  .842874869704D-04  .295585778076D-11  .000000000000D+00
     .760000000000D+02 -.143437500000D+02  .462983570838D-08  .196105659971D+01
    -.694766640663D-06  .465137953870D-02  .739097595215D-05  .515372600746D+04
     .539984000000D+06 -.968575477600D-07  .297639489409D+01  .223517417908D-07
     .960199222300D+00  .232500000000D+03 -.264087087730D+01 -.796640326124D-08
     .192865176466D-09  .100000000000D+01  .154800000000D+04  .000000000000D+00
     .240000000000D+01  .000000000000D+00 -.102445483208D-07  .760000000000D+02
     .532806000000D+06  .400000000000D+01
24 09  9 12  5 59 44.0  .219912268221D-03  .295585778076D-11  .000000000000D+00
     .460000000000D+02  .250625000000D+02  .483377277461D-08 -.309050466792D+01
     .137649476528D-05  .648203887977D-02  .866875052452D-05  .515366596413D+04
     .539984000000D+06 -.745058059692D-07 -.222816738857D+01  .745058059692D-07
     .950205870906D+00  .204468750000D+03 -.627640268354D+00 -.796104589523D-08
    -.208222959036D-09  .100000000000D+01  .154800000000D+04  .000000000000D+00
     .240000000000D+01  .000000000000D+00 -.139698386192D-08  .460000000000D+02
     .532806000000D+06  .400000000000D+01
27 09  9 12  5 59 44.0  .820313580334D-04  .318323145621D-11  .000000000000D+00
     .760000000000D+02 -.842187500000D+02  .409588489576D-08  .157210312079D+01
    -.506825745106D-05  .213479271624D-01  .418163836002D-05  .515374997902D+04
     .539984000000D+06  .162050127983D-06  .806158223200D+00 -.467523932457D-06
     .975664523681D+00  .307968750000D+03 -.154748908377D+01 -.802426281418D-08
    -.217866217860D-09  .100000000000D+01  .154800000000D+04  .000000000000D+00
     .240000000000D+01  .000000000000D+00 -.419095158577D-08  .760000000000D+02
     .532806000000D+06  .400000000000D+01
30 09  9 12  5 59 44.0  .176214147359D-03  .306954461848D-11  .000000000000D+00
     .860000000000D+02 -.752187500000D+02  .441125517506D-08  .300218999169D+01
    -.371970236301D-05  .119117363356D-01  .796653330326D-05  .515367416191D+04
     .539984000000D+06  .132247805595D-06  .186716037605D+01 -.745058059692D-08
     .952921250206D+00  .220062500000D+03  .145131839116D+01 -.772925052574D-08
     .209651589973D-09  .100000000000D+01  .154800000000D+04  .000000000000D+00
     .240000000000D+01  .000000000000D+00 -.791624188423D-08  .860000000000D+02
     .532806000000D+06  .400000000000D+01
 1 09  9 12  6  0  0.0 -.573149882257D-04 -.227373675443D-12  .000000000000D+00
     .820000000000D+02 -.712812500000D+02  .551487257372D-08 -.288899112134D+01
    -.355020165443D-05  .378768122755D-02  .825338065624D-05  .515371598625D+04
     .540000000000D+06  .111758708954D-07  .190386799842D+01  .316649675369D-07
     .961697234321D+00  .220937500000D+03  .970839335629D+00 -.778246702813D-08
     .253581991279D-09  .100000000000D+01  .154800000000D+04  .000000000000D+00
     .240000000000D+01  .630000000000D+02 -.190921127796D-07  .820000000000D+02
     .532806000000D+06  .400000000000D+01
 2 09  9 12  6  0  0.0  .171785708517D-03  .295585778076D-11  .000000000000D+00
     .810000000000D+02  .214062500000D+02  .514735726523D-08  .895371354965D+00
     .111944973469D-05  .909369089641D-02  .833161175251D-05  .515370262909D+04
     .540000000000D+06  .208616256714D-06 -.229280775809D+01  .689178705215D-07
     .940898509594D+00  .209625000000D+03  .289216495284D+01 -.816498296146D-08
    -.232152527227D-09  .100000000000D+01  .154800000000D+04  .000000000000D+00
     .240000000000D+01  .000000000000D+00 -.172294676304D-07  .810000000000D+02
     .532806000000D+06  .400000000000D+01
 4 09  9 12  6  0  0.0 -.261766836047D-03 -.172803993337D-10  .000000000000D+00
     .460000000000D+02  .257812500000D+02  .507771150707D-08 -.254580148696D+01
     .103935599327D-05  .873458827846D-02  .882893800735D-05  .515379714203D+04
     .540000000000D+06  .242143869400D-07 -.227456674959D+01 -.204890966415D-06
     .940077935437D+00  .200718750000D+03  .513411124788D+00 -.805319259065D-08
    -.162863926793D-09  .100000000000D+01  .154800000000D+04  .000000000000D+00
     .240000000000D+01  .000000000000D+00 -.605359673500D-08  .460000000000D+02
     .532806000000D+06  .400000000000D+01
 5 09  9 12  6  0  0.0 -.941455364227D-04  .119371179608D-10  .000000000000D+00
     .750000000000D+02  .104281250000D+03  .458233372974D-08  .188546371217D+01
     .542774796486D-05  .232541922014D-02  .838935375214D-05  .515714896393D+04
     .540000000000D+06 -.111758708954D-06 -.123474028473D+01 -.260770320892D-07
     .961433626724D+00  .216875000000D+03  .836729893159D+00 -.797568936233D-08
    -.564309220030D-10  .100000000000D+01  .154800000000D+04  .000000000000D+00
     .240000000000D+01  .000000000000D+00 -.931322574615D-08  .750000000000D+02
     .532806000000D+06  .400000000000D+01
 6 09  9 12  6  0  0.0  .237517524511D-03  .659383658785D-11  .000000000000D+00
     .730000000000D+02 -.637500000000D+01  .520235955630D-08  .296510456780D+01
    -.415369868279D-06  .585402827710D-02  .740028917789D-05  .515369511223D+04
     .540000000000D+06  .109896063805D-06  .291017714925D+01  .465661287308D-07
     .934307019123D+00  .220375000000D+03 -.125870774415D+01 -.822141388346D-08
     .217151902391D-09  .100000000000D+01  .154800000000D+04  .000000000000D+00
     .240000000000D+01  .000000000000D+00 -.512227416039D-08  .730000000000D+02
     .532806000000D+06  .400000000000D+01
 7 09  9 12  6  0  0.0  .116247683764D-04 -.682121026330D-12  .000000000000D+00
     .390000000000D+02 -.832500000000D+02  .423910514717D-08 -.792170356435D+00
    -.436604022980D-05  .310661853291D-02  .568851828575D-05  .515365489006D+04
     .540000000000D+06 -.372529029846D-08  .863689736876D+00 -.838190317154D-07
     .968712129857D+00  .276218750000D+03  .293905806919D+01 -.805104964425D-08
    -.165364030933D-09  .100000000000D+01  .154800000000D+04  .000000000000D+00
     .240000000000D+01  .000000000000D+00 -.107102096081D-07  .390000000000D+02
     .532806000000D+06  .400000000000D+01
 8 09  9 12  6  0  0.0 -.220902729779D-03 -.159161572810D-11  .000000000000D+00
     .640000000000D+02 -.911250000000D+02  .373086969141D-08 -.147058874246D+01
    -.480748713017D-05  .109294296708D-01  .637397170067D-05  .515362960243D+04
     .540000000000D+06 -.614672899246D-07  .926265327720D+00 -.108033418655D-06
     .989914707750D+00  .270406250000D+03  .301998465510D+01 -.782961184905D-08
    -.678599694973D-11  .100000000000D+01  .154800000000D+04  .000000000000D+00
     .340000000000D+01  .000000000000D+00 -.372529029846D-08  .640000000000D+02
     .532806000000D+06  .400000000000D+01
